#cP2015  3 11  0  0  0.00000000      96 ORBIT IGb08 HLM  IGS
## 1835 259200.00000000   900.00000000 57092 0.0000000000000
+   32   G01G02G03G04G05G06G07G08G09G10G11G12G13G14G15G16G17
+        G18G19G20G21G22G23G24G25G26G27G28G29G30G31G32  0  0
+          0  0  0  0  0  0  0  0  0  0  0  0  0  0  0  0  0
+          0  0  0  0  0  0  0  0  0  0  0  0  0  0  0  0  0
+          0  0  0  0  0  0  0  0  0  0  0  0  0  0  0  0  0
++         2  3  3  2  2  2  2  3  2  2  3  3  3  2  3  3  2
++         3  3  2  2  2  2  2  2  0  2  2  2  2  2  2  0  0
++         0  0  0  0  0  0  0  0  0  0  0  0  0  0  0  0  0
++         0  0  0  0  0  0  0  0  0  0  0  0  0  0  0  0  0
++         0  0  0  0  0  0  0  0  0  0  0  0  0  0  0  0  0
%c G  cc GPS ccc cccc cccc cccc cccc ccccc ccccc ccccc ccccc
%c cc cc ccc ccc cccc cccc cccc cccc ccccc ccccc ccccc ccccc
%f  1.2500000  1.025000000  0.00000000000  0.000000000000000
%f  0.0000000  0.000000000  0.00000000000  0.000000000000000
%i    0    0    0    0      0      0      0      0         0
%i    0    0    0    0      0      0      0      0         0
/* RAPID ORBIT COMBINATION FROM WEIGHTED AVERAGE OF:        
/* cod emr esa gfz jpl sio usn whu                          
/* REFERENCED TO IGS TIME (IGST) AND TO WEIGHTED MEAN POLE: 
/* PCV:IGS08_1832 OL/AL:FES2004  NONE     Y  ORB:CMB CLK:CMB
*  2015  3 11 10 30  0.00000000
PG01   5286.167131  14369.849273 -21760.287071     -8.088348  5  6  8  79       
PG02  17445.874294 -14693.180734  13563.887010    552.876198  8  5  6 120       
PG03  11711.501359  22021.177391  -9061.404984    249.868439 10  7  4  77       
PG04  -5546.149418  16560.933086 -20259.268444     -8.815842  7  2  7  89       
PG05   5954.776046 -15433.776580  20693.845753   -268.376008  3  3  4 105       
PG06  25844.324896  -6090.056845    283.024566    105.279903  6  6  5 120       
PG07  18804.624897   8212.915894  17157.680840    446.806499  9  7  5  95       
PG08 -20175.169401  10542.635660  13334.707007     18.379107  9  5  8  98       
PG09  10132.838977  14481.635036  19811.281946   -109.819203  8  6  5  96       
PG10  19740.587614   2991.899668  17335.037719   -166.702612  7  7  7  98       
PG11    -68.033683  18572.388144 -19473.503062   -563.486201  3  5  7  72       
PG12  -8671.639355 -22320.668211 -11819.419546    275.729870  9  6  6  99       
PG13  12918.494360 -22922.635462   3924.783892    -95.596667  8  4  3  78       
PG14 -16753.247298   5724.046652 -19517.424541     79.979524  9  9  4  98       
PG15   1999.181331 -25608.024015  -6150.478080   -237.010547  7  6  1  94       
PG16  -6484.692412  14223.995904  21338.940453   -149.130709  6  6  6 115       
PG17  16094.459526  -3280.685498 -20532.470213   -160.312850  9  6  7 103       
PG18 -21192.136149 -14386.456105  -7119.771107    385.499672 11  8  8  90       
PG19  -7739.796965  24914.828922  -3572.632960   -503.512800  7     4  91       
PG20  20654.489436   2500.757502  16416.306798    298.423708  9  7  2 119       
PG21 -22072.099905  -5794.912494  14591.038046   -425.170918  9  6  7  88       
PG22 -20400.292228  -3221.097223 -16570.917180    327.293375  7  8  5 113       
PG23   3229.023821  22371.926271  13727.669331    -94.318174  7  7  1 105       
PG24  -1930.364500 -15312.152345 -21641.393080    -44.787837  7  5  7 103       
PG25 -17950.134718 -19698.423415   -296.009880    -10.020629  9  7  6 106       
PG26   8806.169850 -15445.229505 -19019.338395 999999.999999
PG27 -12361.542418  22154.165133   7677.986105     57.101011  8  4  7  95       
PG28  19807.794417   9669.495216 -14264.363497    425.162117  9  5  7 111       
PG29  -6550.497189 -18183.582064  18266.908166    597.131714  9  4  5 112       
PG30  25114.891465   2287.337073   8409.521670    -80.661324  8  6  1 123       
PG31 -25496.273969   7331.135785   3544.167098    321.427265  8  9  3 114       
PG32  -1947.124948  19150.349147 -18532.373768   -204.065829  8  7  5 106       
*  2015  3 11 10 45  0.00000000
PG01   2880.588162  14975.607316 -21787.779891     -8.087936  5  6  8  93       
PG02  18857.742955 -14816.615962  11243.894324    552.878247  9  6  7 127       
PG03  10716.148819  21341.186772 -11573.997025    249.884229 11  7  5  83       
PG04  -7707.480136  17016.402431 -19100.765685     -8.817112  7  3  6 108       
PG05   7714.630840 -13770.854618  21292.018554   -268.371259  4  2  5 114       
PG06  25782.142486  -5812.168490  -2571.913076    105.289493  6  6  5 123       
PG07  16857.698854   8780.308032  18797.951163    446.809104  9  7  5  93       
PG08 -21557.261732  10545.726269  10853.146569     18.378882 10  5  8  94       
PG09   9437.995327  16566.318546  18475.628376   -109.828143  9  6  6 107       
PG10  20957.054552   4511.490156  15563.236235   -166.705056  7  7  7  96       
PG11  -1910.260937  19588.615514 -18305.201985   -563.488109  5  5  7  89       
PG12  -7600.722134 -21317.320557 -14170.802796    275.732437  8  5  5  85       
PG13  12876.408947 -22268.637549   6714.590573    -95.599503  7  4  2  73       
PG14 -16055.118685   3483.329494 -20602.987338     79.976371  9  9  5  95       
PG15   2458.495605 -26061.838661  -3403.399938   -237.012727  6  7  2  96       
PG16  -8153.911101  12378.046241  21940.287493   -149.127786  6  6  6 115       
PG17  15407.322343   -922.106071 -21295.219030   -160.315031  9  6  7 104       
PG18 -21475.991550 -15118.794775  -4459.104712    385.502590 11  7  9  53       
PG19  -8070.579274  25032.681713   -688.078795   -503.514041  8     4  78       
PG20  21850.468891   3869.669433  14522.032892    298.427279  9  7  2 119       
PG21 -20518.319492  -6421.316021  16525.515455   -425.174658  9  6  7  87       
PG22 -21541.132556  -4672.633189 -14717.738492    327.297005  7  8  5 106       
PG23   2589.880483  23684.191931  11408.528233    -94.320457  6  6  2  96       
PG24    443.989506 -15924.315499 -21264.630229    -44.788618  7  5  5 112       
PG25 -17681.579511 -19700.244917  -3167.345967    -10.023464  9  6  6  77       
PG26  10953.719295 -15882.777097 -17430.605909 999999.999999
PG27 -12309.087679  21099.376654  10294.675065     57.103394  8  5  7 108       
PG28  20725.467565  10970.868233 -11936.998697    425.164647 10  4  8 120       
PG29  -5797.591187 -20020.506786  16517.393396    597.133858  8  4  5 111       
PG30  24066.406718   2716.766083  10954.485081    -80.659103  7  6    124       
PG31 -25756.256137   7200.795980    692.123664    321.426196  9  9  3 107       
PG32  -3428.705951  17546.986298 -19811.198919   -204.057197  8  7  5 107       
*  2015  3 11 11  0  0.00000000
PG01    525.515877  15701.680657 -21441.829905     -8.087469  5  6  8  99       
PG02  20008.498422 -14914.810566   8728.826795    552.880406 10  7  7 112       
PG03   9483.814380  20530.741238 -13886.886404    249.899996 10  7  5  71       
PG04  -9707.738419  17530.542620 -17619.332662     -8.817916  7  4  5  82       
PG05   9588.631502 -12167.267495  21521.528530   -268.366706  4  3  5 103       
PG06  25429.529421  -5431.791402  -5382.553037    105.299085  6  6  5 108       
PG07  14783.129049   9501.402182  20120.946132    446.812067  9  6  6  74       
PG08 -22649.335199  10570.479801   8180.091480     18.378751 10  5  8  86       
PG09   8886.261393  18518.432758  16821.658365   -109.837240  9  7  6 108       
PG10  22085.509909   5818.076455  13521.470034   -166.706218  7  6  6  97       
PG11  -3595.959917  20595.294007 -16832.936442   -563.491085  6  3  7  82       
PG12  -6294.269052 -20200.443279 -16282.172538    275.734996  8  5  5  77       
PG13  12773.889212 -21318.291040   9389.139115    -95.602687  7  5  1  79       
PG14 -15446.078772   1110.235146 -21325.555914     79.973377 10  9  5  84       
PG15   2844.615784 -26225.903864   -596.672503   -237.014775  8  7  4  77       
PG16  -9954.750657  10598.161455  22160.604250   -149.124807  5  6  6 121       
PG17  14829.423826   1532.018663 -21680.625497   -160.316827 10  5  7 111       
PG18 -21567.385175 -15633.336898  -1722.327627    385.504803 10  7  9  81       
PG19  -8297.187006  24851.108804   2208.639529   -503.515273  8     4  86       
PG20  22929.055875   5038.775314  12376.693820    298.430879  9  6  2 126       
PG21 -18811.957259  -7185.652502  18192.733599   -425.177965  9  6  7  83       
PG22 -22578.518266  -5920.112779 -12609.651034    327.300398  7  7  5  91       
PG23   2073.456691  24759.467264   8889.841571    -94.322580  5  6  2  99       
PG24   2725.529882 -16636.951199 -20522.379148    -44.789937  7  4  4  88       
PG25 -17174.894397 -19502.086753  -5984.784604    -10.026345  8  6  6  65       
PG26  12886.768963 -16365.218438 -15522.243794 999999.999999
PG27 -12253.416500  19762.530256  12733.144521     57.105767  8  6  7 113       
PG28  21519.058647  12012.622151  -9398.326416    425.166670 10  3  8  83       
PG29  -5200.486261 -21688.663365  14484.722088    597.135978  8  4  5 108       
PG30  22772.015945   3265.163067  13311.364990    -80.656888  5  6    121       
PG31 -25714.820706   6994.371333  -2171.564780    321.425257  9  9  2 103       
PG32  -5078.621183  15926.879525 -20753.889390   -204.048659  7  6  5  99       
EOF
